P/2011 Y2 (Boattini),e,6.3929,309.3196,132.0924,6.225931,0.0634450,0.71116343,318.9977,12/25.0/2025,2000,g 15.0,4.0
# From MPC 93583
C/2012 A1 (PANSTARRS),e,121.0096,277.8722,191.9397,19536,0.0000004,0.99961039,0.0000,11/29.6862/2013,2000,g  6.0,4.0
# From unp
P/2012 A3 (SOHO),e,11.0154,174.5574,219.8276,2.584233,0.2372502,0.77006480,127.9567,12/25.0/2025,2000,g 17.0,4.0
# From MPEC 2022-K19
P/2012 B1 (PANSTARRS),e,7.6051,36.2084,161.8653,6.544456,0.0588700,0.41041950,269.7262,12/25.0/2025,2000,g  9.0,4.0
# From MPC 84931
P/2012 F2 (PANSTARRS),e,14.6958,226.9128,33.1839,6.349913,0.0615960,0.54116017,287.3712,12/25.0/2025,2000,g 12.0,4.0
# From MPEC 2022-ED3
P/2012 G1 (PANSTARRS),e,12.1684,283.2310,266.0141,4.161731,0.1160895,0.32984952,222.0467,12/25.0/2025,2000,g 15.0,4.0
# From MPC103843
C/2012 K1 (PANSTARRS),e,142.5868,317.7621,203.1895,7483,0.0000015,0.99985852,0.0000,08/23.3658/2014,2000,g  5.6,3.2
# From MPC 80898
P/2012 K3 (Gibbs),e,13.1814,125.8020,172.1154,3.633582,0.1422989,0.42174502,331.1351,12/25.0/2025,2000,g 15.0,4.0
# From MPC100577
C/2012 K8 (Lemmon),h,08/20.6879/2014,105.9795,312.7289,75.8498,1.000835,6.460668,2000,6.0,4.0
# From MPC112389
C/2012 LP26 (Palomar),h,08/12.7657/2015,25.3592,154.0853,145.3345,1.001520,6.572185,2000,6.5,4.0
# From MPC 81470
P/2012 O1 (McNaught),e,7.4280,91.9399,238.2767,3.542612,0.1478151,0.59348406,7.9654,12/25.0/2025,2000,g 17.5,4.0
# From MPC 80899
P/2012 O2 (McNaught),e,24.4557,120.6587,183.3961,3.630890,0.1424572,0.53128214,346.1116,12/25.0/2025,2000,g 17.0,4.0
# From MPC115880
C/2012 Q1 (Kowalski),e,45.1638,184.4755,139.5008,26.22901,0.0073372,0.63632715,37.2103,12/25.0/2025,2000,g  4.0,4.0
# From MPEC 2025-W75
C/2012 S1 (ISON),h,11/28.0533/2013,58.4783,297.0155,345.1248,1.000003,0.014258,2000,8.5,3.2
# From MPC 80900
P/2012 T3 (PANSTARRS),e,9.5535,114.3203,195.4362,6.161524,0.0644424,0.61559623,321.7926,12/25.0/2025,2000,g 15.0,4.0
# From MPC108592
C/2012 X1 (LINEAR),e,44.2881,113.3512,132.1600,159.5014,0.0004893,0.98987314,0.0000,02/15.3598/2014,2000,g  4.8,3.6
# From MPC103843
C/2013 A1 (Siding Spring),h,10/26.5038/2014,128.7615,301.1985,2.5663,1.000098,1.401152,2000,8.2,2.4
# From MPEC 2025-YF1
C/2013 C2 (Tenagra),e,21.3728,247.5820,308.7399,15.87327,0.0155849,0.42589658,58.7594,12/25.0/2025,2000,g  4.0,4.0
# From MPEC 2013-Y32
P/2013 CU129 (PANSTARRS),e,11.8329,45.6764,212.9647,2.903505,0.1992142,0.71604802,190.9870,12/25.0/2025,2000,g 18.0,2.0
# From MPC 90270
C/2013 E1 (McNaught),e,158.7120,133.8246,311.3595,6874,0.0000017,0.99887090,0.0000,06/10.2653/2013,2000,g  5.5,4.0
# From MPC 91612
P/2013 G1 (Kowalski),e,5.4569,221.3089,51.3137,6.909201,0.0542703,0.51012819,239.8312,12/25.0/2025,2000,g 11.0,4.0
# From MPC 84025
P/2013 G4 (PANSTARRS),e,5.9200,339.5871,214.5107,4.431968,0.1056353,0.40966530,135.6872,12/25.0/2025,2000,g 15.0,4.0
# From MPC 91613
P/2013 J2 (McNaught),e,15.4995,289.2830,37.8311,6.231927,0.0633535,0.65567399,285.5704,12/25.0/2025,2000,g 13.0,4.0
# From MPC111767
C/2013 P3 (Palomar),h,11/25.2755/2014,93.8484,177.3564,177.3549,1.002245,8.689024,2000,5.5,4.0
# From MPC 96865
C/2013 P4 (PANSTARRS),e,4.2600,256.4938,113.8903,14.78396,0.0173388,0.59408249,72.0355,12/25.0/2025,2000,g  7.5,4.0
# From MPEC 2022-V95
P/2013 R3 (Catalina-PANSTARRS),e,0.8666,341.7396,11.3847,3.030686,0.1868068,0.27804348,120.3077,12/25.0/2025,2000,g 14.0,4.0
# From MPC 86643
P/2013 T2 (Schwartz),e,9.4463,0.7984,345.5604,3.493786,0.1509245,0.50012836,334.5854,12/25.0/2025,2000,g 16.0,4.0
# From MPC110080
C/2013 US10 (Catalina),h,11/12.1592/2015,148.9098,186.2056,340.2541,1.000140,0.814882,2000,4.4,4.0
# From MPC111767
C/2013 V4 (Catalina),h,10/10.3587/2015,67.9842,55.5556,40.4402,1.000397,5.182655,2000,6.0,4.0
# From MPC 91613
P/2013 W1 (PANSTARRS),e,4.7002,117.8372,1.2644,3.484071,0.1515561,0.59391858,292.4178,12/25.0/2025,2000,g 17.5,4.0
# From MPC109141
C/2013 W2 (PANSTARRS),e,4.8521,178.2673,303.8851,9.613293,0.0330671,0.54783664,133.7105,12/25.0/2025,2000,g 13.5,2.0
# From MPC111767
C/2013 X1 (PANSTARRS),h,04/23.5860/2016,163.0768,132.0458,165.4827,1.000947,1.313592,2000,10.5,2.0
# From MPC101095
P/2013 YG46 (Spacewatch),e,7.2092,42.3569,249.2505,3.246990,0.1684545,0.47846710,178.0791,12/25.0/2025,2000,g 10.0,4.0
# From MPC108592
C/2014 A4 (SONEAR),h,09/05.5040/2015,121.3563,29.6889,356.8741,1.000057,4.206014,2000,6.0,4.0
# From MPEC 2022-HC2
C/2014 B1 (Schwartz),h,09/09.1863/2017,28.3850,161.3024,345.7262,1.000236,9.534447,2000,4.0,4.0
# From MPEC 2024-F34
P/2014 C1 (TOTAS),e,3.1981,39.6645,188.0535,4.035589,0.1215748,0.34004744,247.9599,12/25.0/2025,2000,g 15.5,4.0
# From MPC181177
C/2014 F3 (Sheppard-Trujillo),e,6.5209,325.9844,5.1107,14.37167,0.0180902,0.60113072,30.2702,12/25.0/2025,2000,g  6.0,4.0
# From MPC 98560
P/2014 L2 (NEOWISE),e,5.1887,149.3281,182.6695,6.314485,0.0621151,0.64592280,259.7761,12/25.0/2025,2000,g 12.0,4.0
# From MPEC 2022-M88
C/2014 M2 (Christensen),e,32.3338,245.4031,40.4293,1302,0.0000210,0.99466979,0.0000,07/07.8437/2014,2000,g  6.0,4.0
# From MPC 98560
P/2014 O3 (PANSTARRS),e,7.7889,87.6239,204.5803,7.588664,0.0471472,0.38237357,202.1771,12/25.0/2025,2000,g 10.5,4.0
# From MPEC 2021-J28
C/2014 OE4 (PANSTARRS),h,12/06.8999/2016,81.2506,240.4526,65.8652,1.000186,6.262486,2000,11.0,2.0
# From MPEC 2025-YF1
C/2014 OG392 (PANSTARRS),e,9.0321,145.8296,255.4873,12.25409,0.0229764,0.18487386,33.2282,12/25.0/2025,2000,g  6.0,4.0
# From MPC115880
C/2014 Q2 (Lovejoy),e,80.7024,94.8452,12.3325,402.0494,0.0001223,0.99680642,0.0000,01/30.9892/2015,2000,g  2.7,10.0
# From MPEC 2021-F20
C/2014 R3 (PANSTARRS),e,90.7795,333.9876,113.3389,70213,0.0000001,0.99989657,0.0000,08/08.8964/2016,2000,g  6.5,4.0
# From MPEC 2025-YF1
C/2014 UN271 (Bernardinelli-Bernstein),h,01/16.1790/2031,95.4460,189.9817,326.0755,1.004334,10.960591,2000,2.5,3.2
# From MPC 95211
P/2014 V1 (PANSTARRS),e,22.4960,166.1688,177.6307,5.482767,0.0767723,0.53327683,306.0577,12/25.0/2025,2000,g 14.0,4.0
# From MPC105542
P/2014 W4 (PANSTARRS),e,15.2826,33.2832,67.8057,6.578471,0.0584140,0.35523388,212.4198,12/25.0/2025,2000,g 11.0,4.0
# From MPC 99270
P/2015 B1 (PANSTARRS),e,18.0954,352.8410,188.6491,9.471162,0.0338142,0.36725817,127.1894,12/25.0/2025,2000,g  8.5,4.0
# From MPC 98561
C/2015 D2 (PANSTARRS),e,31.9232,162.7192,292.3376,12.79634,0.0215315,0.56197956,96.1110,12/25.0/2025,2000,g  8.0,4.0
# From MPEC 2020-L06
C/2015 D3 (PANSTARRS),e,128.5689,156.8982,2.6291,12671,0.0000007,0.99935813,0.0000,04/25.2368/2016,2000,g  5.5,4.0
# From MPC109141
P/2015 D5 (Kowalski),e,20.5477,74.0814,39.6595,8.944057,0.0368470,0.49205502,157.4974,12/25.0/2025,2000,g  9.0,4.0
# From MPEC 2024-R10
P/2015 D6 (Lemmon-PANSTARRS),e,20.3386,45.2759,125.9947,7.117004,0.0519109,0.36310021,198.6361,12/25.0/2025,2000,g 10.5,4.0
# From MPEC 2021-F20
C/2015 ER61 (PANSTARRS),e,6.3071,234.9406,68.7920,474.5492,0.0000953,0.99775895,0.0000,05/05.4897/2017,2000,g 11.0,2.0
# From MPC107684
P/2015 M2 (PANSTARRS),e,3.9677,86.6977,225.5785,7.255797,0.0504285,0.17763576,190.3119,12/25.0/2025,2000,g  8.5,4.0
# From MPEC 2021-P47
C/2015 O1 (PANSTARRS),h,02/18.2799/2018,27.1050,299.7041,89.8453,1.001786,3.746246,2000,6.5,4.0
# From MPEC 2022-K19
P/2015 PD229 (Cameron-ISON),e,2.0194,342.7502,352.6320,7.209827,0.0509116,0.32467413,193.1608,12/25.0/2025,2000,g 11.5,2.0
# From MPC 95734
P/2015 R2 (PANSTARRS),e,15.4827,168.6018,149.8789,4.478934,0.1039781,0.45183653,38.9193,12/25.0/2025,2000,g 14.5,4.0
# From MPC102097
C/2015 T5 (Sheppard-Tholen),e,11.0195,311.2523,62.2216,28.44407,0.0064971,0.66998252,23.4961,12/25.0/2025,2000,g  7.5,4.0
# From MPEC 2025-XC7
P/2015 TO19 (Lemmon-PANSTARRS),e,6.5049,321.6048,89.4425,4.547447,0.1016372,0.35984485,3.1544,12/25.0/2025,2000,g 14.0,4.0
# From MPC110080
P/2015 TP200 (LINEAR),e,8.7772,6.8736,82.6550,7.263280,0.0503506,0.53729084,168.0516,12/25.0/2025,2000,g 11.0,4.0
# From MPC115881
C/2015 V1 (PANSTARRS),e,139.1827,197.3113,179.9101,81910,0.0000000,0.99994763,0.0000,12/19.0484/2017,2000,g  6.5,4.0
# From MPC112390
C/2015 V2 (Johnson),h,06/08.9319/2017,49.7865,70.0486,164.7472,1.000801,1.636259,2000,5.0,4.0
# From MPC104791
C/2015 V4 (PANSTARRS),e,60.7740,179.7941,306.7807,18.43183,0.0124552,0.70531929,42.3903,12/25.0/2025,2000,g  8.5,4.0
# From MPEC 2022-OB6
C/2015 XY1 (Lemmon),h,04/27.6278/2018,148.8591,281.5257,196.3204,1.001309,7.950832,2000,5.5,4.0
# From MPEC 2023-J29
P/2015 X3 (PANSTARRS),e,24.4211,77.2520,306.9957,4.995874,0.0882647,0.43966632,333.2788,12/25.0/2025,2000,g 15.0,4.0
# From MPC119995
C/2015 X5 (PANSTARRS),h,12/28.1220/2017,124.3789,122.2023,27.6757,1.000394,6.812376,2000,7.5,4.0
# From MPC115881
P/2015 X6 (PANSTARRS),e,4.5662,106.9296,329.5542,2.752240,0.2158613,0.17406451,49.2425,12/25.0/2025,2000,g 16.0,4.0
# From MPEC 2022-O08
C/2016 A1 (PANSTARRS),e,121.2767,128.0100,10.1750,10132,0.0000010,0.99947390,0.0000,11/20.0292/2017,2000,g  6.0,4.0
# From MPEC 2022-OB6
P/2016 A3 (PANSTARRS),e,8.5249,187.1093,340.8135,7.865702,0.0446784,0.38742726,141.3250,12/25.0/2025,2000,g 10.0,4.0
# From MPC102098
P/2016 A7 (PANSTARRS),e,16.1362,219.9953,353.1027,5.083556,0.0859909,0.56910106,315.3978,12/25.0/2025,2000,g 16.0,4.0
# From MPEC 2020-L06
C/2016 C1 (PANSTARRS),h,02/18.0904/2016,56.2085,181.7269,328.5144,1.001425,8.428389,2000,5.5,4.0
# From MPEC 2020-L06
C/2016 E1 (PANSTARRS),h,05/27.7139/2017,131.8683,233.1433,47.2311,1.001592,8.160359,2000,6.5,4.0
# From MPEC 2021-P47
P/2016 G1 (PANSTARRS),e,10.9705,204.0088,111.0772,2.583301,0.2373785,0.20989574,52.9109,12/25.0/2025,2000,g 14.0,4.0
# From MPEC 2022-ED3
C/2016 M1 (PANSTARRS),e,90.7327,92.2982,209.8431,2288,0.0000090,0.99903312,0.0000,08/08.0155/2018,2000,g  5.0,4.0
# From MPEC 2021-P47
C/2016 N6 (PANSTARRS),e,105.9413,298.7266,162.6582,990.2576,0.0000316,0.99730074,0.0000,07/16.1529/2018,2000,g  7.0,4.0
# From MPC102099
P/2016 P1 (PANSTARRS),e,24.4908,318.9515,271.2641,3.201296,0.1720740,0.28684341,284.8398,12/25.0/2025,2000,g 15.0,4.0
# From MPEC 2025-W75
